STARLINK-35768          
1 66832U 25280M   25355.50002315  .00069766  00000+0  11285-2 0  9990
2 66832  70.0000 174.3969 0003188 267.5410 108.3034 15.52478145  4306
STARLINK-35858          
1 66833U 25280N   25355.50002315  .00070514  00000+0  11404-2 0  9997
2 66833  69.9998 174.3951 0003286 263.6765 114.0813 15.52478937  4308
STARLINK-35840          
1 66834U 25280P   25355.50002315  .00075885  00000+0  12266-2 0  9991
2 66834  70.0000 174.3916 0003206 267.2638 112.4216 15.52470678  4301
STARLINK-35890          
1 66835U 25280Q   25355.50002315  .00068407  00000+0  11067-2 0  9992
2 66835  70.0000 174.3898 0003110 265.0759 116.5141 15.52480251  4305
STARLINK-35838          
1 66836U 25280R   25355.50002315 -.00055104  00000+0 -89810-3 0  9997
2 66836  70.0001 174.3874 0003183 266.0849 117.3966 15.52552699  4302
STARLINK-35729          
1 66837U 25280S   25355.50002315  .00064954  00000+0  10514-2 0  9993
2 66837  70.0002 174.3850 0003438 266.5196 118.9039 15.52479960  4308
STARLINK-35886          
1 66838U 25280T   25355.50002315  .00073173  00000+0  11831-2 0  9990
2 66838  70.0003 174.3796 0002852 270.8385 118.4259 15.52474734  4309
STARLINK-35717          
1 66839U 25280U   25355.50002315  .00067736  00000+0  10960-2 0  9991
2 66839  70.0002 174.3822 0003202 266.0132 121.3298 15.52477774  4309
STARLINK-35837          
1 66840U 25280V   25355.50002315  .00077228  00000+0  12476-2 0  9994
2 66840  70.0001 174.3774 0003276 264.9090 126.2375 15.52480456  4308
STARLINK-35715          
1 66841U 25280W   25355.50002315  .00066417  00000+0  10748-2 0  9993
2 66841  70.0001 174.3758 0003133 266.3060 126.7798 15.52481830  4307
STARLINK-35769          
1 66842U 25280X   25355.50002315  .00067449  00000+0  10914-2 0  9995
2 66842  70.0001 174.3735 0003054 264.1032 130.9075 15.52478827  4307
STARLINK-35997          
1 66843U 25280Y   25355.50002315  .00067437  00000+0  10911-2 0  9990
2 66843  70.0002 174.3679 0003167 266.9945 131.8447 15.52481317  4305
